[
    {
        "Altitude(m)": 702873.1829393202,
        "Argument of Periapsis(deg)": 0.007973084830638947,
        "Eccentricity": 0.0,
        "Inclination(deg)": 45.0,
        "Latitude(deg)": 5.678050002523281,
        "Longitude(deg)": 80.14277380209451,
        "Mean Anomaly(deg)": 8.073251653236582,
        "RAAN(deg)": 174.99247364097926,
        "Satellite Name": "Constellation 1 770",
        "Satellite Number": 770,
        "Semi-Major Axis(m)": 7083131.272910544,
        "Time(s)": 133
    },
    {
        "Altitude(m)": 702870.3252457203,
        "Argument of Periapsis(deg)": 0.008033032836884352,
        "Eccentricity": 0.0,
        "Inclination(deg)": 45.0,
        "Latitude(deg)": 5.721056114538121,
        "Longitude(deg)": 80.18195457514781,
        "Mean Anomaly(deg)": 8.133952793486468,
        "RAAN(deg)": 174.9924170518137,
        "Satellite Name": "Constellation 1 770",
        "Satellite Number": 770,
        "Semi-Major Axis(m)": 7083131.272910544,
        "Time(s)": 134
    },
    {
        "Altitude(m)": 702867.4882359687,
        "Argument of Periapsis(deg)": 0.008092980843129758,
        "Eccentricity": 0.0,
        "Inclination(deg)": 45.0,
        "Latitude(deg)": 5.764058950796812,
        "Longitude(deg)": 80.2211418654768,
        "Mean Anomaly(deg)": 8.19465393373638,
        "RAAN(deg)": 174.99236046264812,
        "Satellite Name": "Constellation 1 770",
        "Satellite Number": 770,
        "Semi-Major Axis(m)": 7083131.272910544,
        "Time(s)": 135
    },
    {
        "Altitude(m)": 702864.6719040979,
        "Argument of Periapsis(deg)": 0.008152928849375162,
        "Eccentricity": 0.0,
        "Inclination(deg)": 45.0,
        "Latitude(deg)": 5.807058485511542,
        "Longitude(deg)": 80.26033572237918,
        "Mean Anomaly(deg)": 8.255355073986266,
        "RAAN(deg)": 174.99230387348257,
        "Satellite Name": "Constellation 1 770",
        "Satellite Number": 770,
        "Semi-Major Axis(m)": 7083131.272910544,
        "Time(s)": 136
    },
    {
        "Altitude(m)": 702861.8762440468,
        "Argument of Periapsis(deg)": 0.008212876855620568,
        "Eccentricity": 0.0,
        "Inclination(deg)": 45.0,
        "Latitude(deg)": 5.85005469288195,
        "Longitude(deg)": 80.29953619516712,
        "Mean Anomaly(deg)": 8.316056214236179,
        "RAAN(deg)": 174.992247284317,
        "Satellite Name": "Constellation 1 770",
        "Satellite Number": 770,
        "Semi-Major Axis(m)": 7083131.272910544,
        "Time(s)": 137
    },
    {
        "Altitude(m)": 702859.1012496699,
        "Argument of Periapsis(deg)": 0.008272824861865974,
        "Eccentricity": 0.0,
        "Inclination(deg)": 45.0,
        "Latitude(deg)": 5.893047547094874,
        "Longitude(deg)": 80.33874333316717,
        "Mean Anomaly(deg)": 8.37675735448609,
        "RAAN(deg)": 174.9921906951514,
        "Satellite Name": "Constellation 1 770",
        "Satellite Number": 770,
        "Semi-Major Axis(m)": 7083131.272910544,
        "Time(s)": 138
    },
    {
        "Altitude(m)": 702856.3469147212,
        "Argument of Periapsis(deg)": 0.00833277286811138,
        "Eccentricity": 0.0,
        "Inclination(deg)": 45.0,
        "Latitude(deg)": 5.936037022324444,
        "Longitude(deg)": 80.37795718572097,
        "Mean Anomaly(deg)": 8.437458494735976,
        "RAAN(deg)": 174.99213410598585,
        "Satellite Name": "Constellation 1 770",
        "Satellite Number": 770,
        "Semi-Major Axis(m)": 7083131.272910544,
        "Time(s)": 139
    },
    {
        "Altitude(m)": 702853.6132328734,
        "Argument of Periapsis(deg)": 0.008392720874356788,
        "Eccentricity": 0.0,
        "Inclination(deg)": 45.0,
        "Latitude(deg)": 5.979023092731863,
        "Longitude(deg)": 80.41717780218474,
        "Mean Anomaly(deg)": 8.498159634985887,
        "RAAN(deg)": 174.99207751682027,
        "Satellite Name": "Constellation 1 770",
        "Satellite Number": 770,
        "Semi-Major Axis(m)": 7083131.272910544,
        "Time(s)": 140
    },
    {
        "Altitude(m)": 702850.9001977047,
        "Argument of Periapsis(deg)": 0.008452668880602192,
        "Eccentricity": 0.0,
        "Inclination(deg)": 45.0,
        "Latitude(deg)": 6.02200573246527,
        "Longitude(deg)": 80.45640506383259,
        "Mean Anomaly(deg)": 8.558860775235749,
        "RAAN(deg)": 174.9920209276547,
        "Satellite Name": "Constellation 1 770",
        "Satellite Number": 770,
        "Semi-Major Axis(m)": 7083131.272910544,
        "Time(s)": 141
    },
    {
        "Altitude(m)": 702848.2078026952,
        "Argument of Periapsis(deg)": 0.008512616886847598,
        "Eccentricity": 0.0,
        "Inclination(deg)": 45.0,
        "Latitude(deg)": 6.064984915660027,
        "Longitude(deg)": 80.49563935624485,
        "Mean Anomaly(deg)": 8.619561915485662,
        "RAAN(deg)": 174.99196433848914,
        "Satellite Name": "Constellation 1 770",
        "Satellite Number": 770,
        "Semi-Major Axis(m)": 7083131.272910544,
        "Time(s)": 142
    },
    {
        "Altitude(m)": 702845.5360412493,
        "Argument of Periapsis(deg)": 0.008572564893093004,
        "Eccentricity": 0.0,
        "Inclination(deg)": 45.0,
        "Latitude(deg)": 6.107960616438019,
        "Longitude(deg)": 80.5348805607258,
        "Mean Anomaly(deg)": 8.680263055735548,
        "RAAN(deg)": 174.99190774932356,
        "Satellite Name": "Constellation 1 770",
        "Satellite Number": 770,
        "Semi-Major Axis(m)": 7083131.272910544,
        "Time(s)": 143
    },
    {
        "Altitude(m)": 702842.8849066668,
        "Argument of Periapsis(deg)": 0.008632512899338408,
        "Eccentricity": 0.0,
        "Inclination(deg)": 45.0,
        "Latitude(deg)": 6.150932808907973,
        "Longitude(deg)": 80.57412872669194,
        "Mean Anomaly(deg)": 8.74096419598546,
        "RAAN(deg)": 174.991851160158,
        "Satellite Name": "Constellation 1 770",
        "Satellite Number": 770,
        "Semi-Major Axis(m)": 7083131.272910544,
        "Time(s)": 144
    },
    {
        "Altitude(m)": 702840.254392169,
        "Argument of Periapsis(deg)": 0.008692460905583814,
        "Eccentricity": 0.0,
        "Inclination(deg)": 45.0,
        "Latitude(deg)": 6.193901467165225,
        "Longitude(deg)": 80.61338390357515,
        "Mean Anomaly(deg)": 8.801665336235347,
        "RAAN(deg)": 174.99179457099245,
        "Satellite Name": "Constellation 1 770",
        "Satellite Number": 770,
        "Semi-Major Axis(m)": 7083131.272910544,
        "Time(s)": 145
    },
    {
        "Altitude(m)": 702837.6444908748,
        "Argument of Periapsis(deg)": 0.00875240891182922,
        "Eccentricity": 0.0,
        "Inclination(deg)": 45.0,
        "Latitude(deg)": 6.236866565291744,
        "Longitude(deg)": 80.6526461408227,
        "Mean Anomaly(deg)": 8.862366476485258,
        "RAAN(deg)": 174.99173798182684,
        "Satellite Name": "Constellation 1 770",
        "Satellite Number": 770,
        "Semi-Major Axis(m)": 7083131.272910544,
        "Time(s)": 146
    },
    {
        "Altitude(m)": 702835.05519582,
        "Argument of Periapsis(deg)": 0.008812356918074627,
        "Eccentricity": 0.0,
        "Inclination(deg)": 45.0,
        "Latitude(deg)": 6.279828077355837,
        "Longitude(deg)": 80.69191548789729,
        "Mean Anomaly(deg)": 8.923067616735171,
        "RAAN(deg)": 174.9916813926613,
        "Satellite Name": "Constellation 1 770",
        "Satellite Number": 770,
        "Semi-Major Axis(m)": 7083131.272910544,
        "Time(s)": 147
    },
    {
        "Altitude(m)": 702832.4864999511,
        "Argument of Periapsis(deg)": 0.008872304924320031,
        "Eccentricity": 0.0,
        "Inclination(deg)": 45.0,
        "Latitude(deg)": 6.322785977412145,
        "Longitude(deg)": 80.7311918261802,
        "Mean Anomaly(deg)": 8.983768756985057,
        "RAAN(deg)": 174.9916248034957,
        "Satellite Name": "Constellation 1 770",
        "Satellite Number": 770,
        "Semi-Major Axis(m)": 7083131.272910544,
        "Time(s)": 148
    },
    {
        "Altitude(m)": 702829.9383961178,
        "Argument of Periapsis(deg)": 0.008932252930565437,
        "Eccentricity": 0.0,
        "Inclination(deg)": 45.0,
        "Latitude(deg)": 6.365740239501817,
        "Longitude(deg)": 80.77047554135977,
        "Mean Anomaly(deg)": 9.044469897234968,
        "RAAN(deg)": 174.99156821433016,
        "Satellite Name": "Constellation 1 770",
        "Satellite Number": 770,
        "Semi-Major Axis(m)": 7083131.272910544,
        "Time(s)": 149
    },
    {
        "Altitude(m)": 702827.4108770888,
        "Argument of Periapsis(deg)": 0.008992200936810843,
        "Eccentricity": 0.0,
        "Inclination(deg)": 45.0,
        "Latitude(deg)": 6.408690837651906,
        "Longitude(deg)": 80.80976651484873,
        "Mean Anomaly(deg)": 9.105171037484855,
        "RAAN(deg)": 174.9915116251646,
        "Satellite Name": "Constellation 1 770",
        "Satellite Number": 770,
        "Semi-Major Axis(m)": 7083131.272910544,
        "Time(s)": 150
    },
    {
        "Altitude(m)": 702824.9039355303,
        "Argument of Periapsis(deg)": 0.009052148943056249,
        "Eccentricity": 0.0,
        "Inclination(deg)": 45.0,
        "Latitude(deg)": 6.451637745875628,
        "Longitude(deg)": 80.8490647961729,
        "Mean Anomaly(deg)": 9.165872177734766,
        "RAAN(deg)": 174.991455035999,
        "Satellite Name": "Constellation 1 770",
        "Satellite Number": 770,
        "Semi-Major Axis(m)": 7083131.272910544,
        "Time(s)": 151
    }
]